{"type": "FeatureCollection", "features": [ {"type": "Feature", "properties": {"norad_id": 54031, "name": "COSMOS 2559 (707K)", "group": "gnss", "lat": 55.46219024743218, "lon": 5.008335333823903, "alt_km": 19140.98525998001, "timestamp": "2025-12-21T03:56:51.083530+00:00", "meta": {"OBJECT_NAME": "COSMOS 2559 (707K)", "OBJECT_ID": "2022-130A", "EPOCH": "2025-12-20T03:21:15.154272", "MEAN_MOTION": 2.13101371, "ECCENTRICITY": 0.00115862, "INCLINATION": 64.3781, "RA_OF_ASC_NODE": 320.8808, "ARG_OF_PERICENTER": 191.9229, "MEAN_ANOMALY": 168.0425, "EPHEMERIS_TYPE": 0, "CLASSIFICATION_TYPE": "U", "NORAD_CAT_ID": 54031, "ELEMENT_SET_NO": 999, "REV_AT_EPOCH": 2487, "BSTAR": 0, "MEAN_MOTION_DOT": -5.6e-07, "MEAN_MOTION_DDOT": 0}, "tle": {"line1": "1 54031U 22130A   25354.13975873 -.00000056  00000+0  00000+0 0  9993", "line2": "2 54031  64.3781 320.8808 0011586 191.9229 168.0425  2.13101371 24873"}}, "geometry": {"type": "Point", "coordinates": [5.008335333823903, 55.46219024743218]}}, {"type": "Feature", "properties": {"norad_id": 54377, "name": "COSMOS 2564 (761)", "group": "gnss", "lat": -5.119615511503447, "lon": 21.049663161945713, "alt_km": 19110.36369105304, "timestamp": "2025-12-21T03:56:51.083541+00:00", "meta": {"OBJECT_NAME": "COSMOS 2564 (761)", "OBJECT_ID": "2022-161A", "EPOCH": "2025-12-20T10:52:36.393600", "MEAN_MOTION": 2.13102061, "ECCENTRICITY": 0.00085537, "INCLINATION": 64.7386, "RA_OF_ASC_NODE": 198.6426, "ARG_OF_PERICENTER": 203.8695, "MEAN_ANOMALY": 156.167, "EPHEMERIS_TYPE": 0, "CLASSIFICATION_TYPE": "U", "NORAD_CAT_ID": 54377, "ELEMENT_SET_NO": 999, "REV_AT_EPOCH": 2382, "BSTAR": 0, "MEAN_MOTION_DOT": 1.01e-06, "MEAN_MOTION_DDOT": 0}, "tle": {"line1": "1 54377U 22161A   25354.45319900  .00000101  00000+0  00000+0 0  9998", "line2": "2 54377  64.7386 198.6426 0008553 203.8695 156.1670  2.13102061 23829"}}, "geometry": {"type": "Point", "coordinates": [21.049663161945713, -5.119615511503447]}}, {"type": "Feature", "properties": {"norad_id": 55268, "name": "GPS BIII-6  (PRN 28)", "group": "gnss", "lat": 27.188545110459817, "lon": -45.510190273630066, "alt_km": 20188.172845650202, "timestamp": "2025-12-21T03:56:51.083559+00:00", "meta": {"OBJECT_NAME": "GPS BIII-6  (PRN 28)", "OBJECT_ID": "2023-009A", "EPOCH": "2025-12-17T11:51:56.668896", "MEAN_MOTION": 2.00555417, "ECCENTRICITY": 0.00037978, "INCLINATION": 55.1064, "RA_OF_ASC_NODE": 155.6587, "ARG_OF_PERICENTER": 358.2196, "MEAN_ANOMALY": 17.9493, "EPHEMERIS_TYPE": 0, "CLASSIFICATION_TYPE": "U", "NORAD_CAT_ID": 55268, "ELEMENT_SET_NO": 999, "REV_AT_EPOCH": 2160, "BSTAR": 0, "MEAN_MOTION_DOT": 7.7e-07, "MEAN_MOTION_DDOT": 0}, "tle": {"line1": "1 55268U 23009A   25351.49440589  .00000077  00000+0  00000+0 0  9991", "line2": "2 55268  55.1064 155.6587 0003797 358.2196  17.9493  2.00555417 21607"}}, "geometry": {"type": "Point", "coordinates": [-45.510190273630066, 27.188545110459817]}}, {"type": "Feature", "properties": {"norad_id": 56564, "name": "BEIDOU-3 G4 (C62)", "group": "gnss", "lat": 0.0719488733577347, "lon": -50.73078991491498, "alt_km": 35794.88311559491, "timestamp": "2025-12-21T03:56:51.083570+00:00", "meta": {"OBJECT_NAME": "BEIDOU-3 G4 (C62)", "OBJECT_ID": "2023-066A", "EPOCH": "2025-12-20T19:37:12.279936", "MEAN_MOTION": 1.00271479, "ECCENTRICITY": 0.0002706, "INCLINATION": 0.7981, "RA_OF_ASC_NODE": 302.6732, "ARG_OF_PERICENTER": 226.5087, "MEAN_ANOMALY": 14.8261, "EPHEMERIS_TYPE": 0, "CLASSIFICATION_TYPE": "U", "NORAD_CAT_ID": 56564, "ELEMENT_SET_NO": 999, "REV_AT_EPOCH": 960, "BSTAR": 0, "MEAN_MOTION_DOT": -8.7e-07, "MEAN_MOTION_DDOT": 0}, "tle": {"line1": "1 56564U 23066A   25354.81750324 -.00000087  00000+0  00000+0 0  9996", "line2": "2 56564   0.7981 302.6732 0002706 226.5087  14.8261  1.00271479  9609"}}, "geometry": {"type": "Point", "coordinates": [-50.73078991491498, 0.0719488733577347]}}, {"type": "Feature", "properties": {"norad_id": 56759, "name": "NVS-01 (IRNSS-1J)", "group": "gnss", "lat": 1.170400260822845, "lon": -81.26054731831852, "alt_km": 35749.06447437018, "timestamp": "2025-12-21T03:56:51.083580+00:00", "meta": {"OBJECT_NAME": "NVS-01 (IRNSS-1J)", "OBJECT_ID": "2023-076A", "EPOCH": "2025-12-20T18:58:56.472096", "MEAN_MOTION": 1.00273571, "ECCENTRICITY": 0.0008758, "INCLINATION": 2.5996, "RA_OF_ASC_NODE": 251.3134, "ARG_OF_PERICENTER": 16.2519, "MEAN_ANOMALY": 236.3428, "EPHEMERIS_TYPE": 0, "CLASSIFICATION_TYPE": "U", "NORAD_CAT_ID": 56759, "ELEMENT_SET_NO": 999, "REV_AT_EPOCH": 932, "BSTAR": 0, "MEAN_MOTION_DOT": -3.1e-06, "MEAN_MOTION_DDOT": 0}, "tle": {"line1": "1 56759U 23076A   25354.79093139 -.00000310  00000+0  00000+0 0  9993", "line2": "2 56759   2.5996 251.3134 0008758  16.2519 236.3428  1.00273571  9324"}}, "geometry": {"type": "Point", "coordinates": [-81.26054731831852, 1.170400260822845]}}, {"type": "Feature", "properties": {"norad_id": 57517, "name": "COSMOS 2569 (703K)", "group": "gnss", "lat": 4.295893944940356, "lon": -103.34483008635452, "alt_km": 19139.90987804788, "timestamp": "2025-12-21T03:56:51.083590+00:00", "meta": {"OBJECT_NAME": "COSMOS 2569 (703K)", "OBJECT_ID": "2023-114A", "EPOCH": "2025-12-20T11:11:48.591168", "MEAN_MOTION": 2.13103983, "ECCENTRICITY": 0.00107986, "INCLINATION": 65.1981, "RA_OF_ASC_NODE": 78.6524, "ARG_OF_PERICENTER": 287.0398, "MEAN_ANOMALY": 72.8764, "EPHEMERIS_TYPE": 0, "CLASSIFICATION_TYPE": "U", "NORAD_CAT_ID": 57517, "ELEMENT_SET_NO": 999, "REV_AT_EPOCH": 1845, "BSTAR": 0, "MEAN_MOTION_DOT": -1.8e-07, "MEAN_MOTION_DDOT": 0}, "tle": {"line1": "1 57517U 23114A   25354.46653462 -.00000018  00000+0  00000+0 0  9999", "line2": "2 57517  65.1981  78.6524 0010798 287.0398  72.8764  2.13103983 18453"}}, "geometry": {"type": "Point", "coordinates": [-103.34483008635452, 4.295893944940356]}}, {"type": "Feature", "properties": {"norad_id": 58654, "name": "BEIDOU-3 M28 (C50)", "group": "gnss", "lat": 55.60994568451599, "lon": 159.34067022833804, "alt_km": 21529.141347783858, "timestamp": "2025-12-21T03:56:51.083600+00:00", "meta": {"OBJECT_NAME": "BEIDOU-3 M28 (C50)", "OBJECT_ID": "2023-207A", "EPOCH": "2025-12-18T08:16:11.764704", "MEAN_MOTION": 1.86229821, "ECCENTRICITY": 0.00026501, "INCLINATION": 55.5892, "RA_OF_ASC_NODE": 68.4116, "ARG_OF_PERICENTER": 272.4264, "MEAN_ANOMALY": 87.5728, "EPHEMERIS_TYPE": 0, "CLASSIFICATION_TYPE": "U", "NORAD_CAT_ID": 58654, "ELEMENT_SET_NO": 999, "REV_AT_EPOCH": 1347, "BSTAR": 0, "MEAN_MOTION_DOT": -6.6e-07, "MEAN_MOTION_DDOT": 0}, "tle": {"line1": "1 58654U 23207A   25352.34458061 -.00000066  00000+0  00000+0 0  9991", "line2": "2 58654  55.5892  68.4116 0002650 272.4264  87.5728  1.86229821 13471"}}, "geometry": {"type": "Point", "coordinates": [159.34067022833804, 55.60994568451599]}}, {"type": "Feature", "properties": {"norad_id": 58655, "name": "BEIDOU-3 M26 (C48)", "group": "gnss", "lat": -36.603543171777744, "lon": -81.1301388544489, "alt_km": 21522.931364673634, "timestamp": "2025-12-21T03:56:51.083610+00:00", "meta": {"OBJECT_NAME": "BEIDOU-3 M26 (C48)", "OBJECT_ID": "2023-207B", "EPOCH": "2025-12-19T05:11:10.015296", "MEAN_MOTION": 1.86231346, "ECCENTRICITY": 0.0004042, "INCLINATION": 55.592, "RA_OF_ASC_NODE": 68.3684, "ARG_OF_PERICENTER": 258.4158, "MEAN_ANOMALY": 101.5732, "EPHEMERIS_TYPE": 0, "CLASSIFICATION_TYPE": "U", "NORAD_CAT_ID": 58655, "ELEMENT_SET_NO": 999, "REV_AT_EPOCH": 1347, "BSTAR": 0, "MEAN_MOTION_DOT": -5.7e-07, "MEAN_MOTION_DDOT": 0}, "tle": {"line1": "1 58655U 23207B   25353.21608814 -.00000057  00000+0  00000+0 0  9992", "line2": "2 58655  55.5920  68.3684 0004042 258.4158 101.5732  1.86231346 13473"}}, "geometry": {"type": "Point", "coordinates": [-81.1301388544489, -36.603543171777744]}}, {"type": "Feature", "properties": {"norad_id": 59598, "name": "GSAT0225 (GALILEO 29)", "group": "gnss", "lat": 37.9350142636092, "lon": 139.09559079850072, "alt_km": 23222.168109626182, "timestamp": "2025-12-21T03:56:51.083620+00:00", "meta": {"OBJECT_NAME": "GSAT0225 (GALILEO 29)", "OBJECT_ID": "2024-079A", "EPOCH": "2025-12-19T07:40:30.040032", "MEAN_MOTION": 1.7047502, "ECCENTRICITY": 0.0002191, "INCLINATION": 55.0052, "RA_OF_ASC_NODE": 106.1117, "ARG_OF_PERICENTER": 185.2617, "MEAN_ANOMALY": 171.1938, "EPHEMERIS_TYPE": 0, "CLASSIFICATION_TYPE": "U", "NORAD_CAT_ID": 59598, "ELEMENT_SET_NO": 999, "REV_AT_EPOCH": 1024, "BSTAR": 0, "MEAN_MOTION_DOT": -6e-08, "MEAN_MOTION_DDOT": 0}, "tle": {"line1": "1 59598U 24079A   25353.31979213 -.00000006  00000+0  00000+0 0  9996", "line2": "2 59598  55.0052 106.1117 0002191 185.2617 171.1938  1.70475020 10248"}}, "geometry": {"type": "Point", "coordinates": [139.09559079850072, 37.9350142636092]}}, {"type": "Feature", "properties": {"norad_id": 59600, "name": "GSAT0227 (GALILEO 30)", "group": "gnss", "lat": -47.38197201265652, "lon": 56.558034816713224, "alt_km": 23236.09296566751, "timestamp": "2025-12-21T03:56:51.083632+00:00", "meta": {"OBJECT_NAME": "GSAT0227 (GALILEO 30)", "OBJECT_ID": "2024-079C", "EPOCH": "2025-12-19T12:12:51.636672", "MEAN_MOTION": 1.70474897, "ECCENTRICITY": 0.0002924, "INCLINATION": 55.0006, "RA_OF_ASC_NODE": 106.105, "ARG_OF_PERICENTER": 116.8359, "MEAN_ANOMALY": 243.1562, "EPHEMERIS_TYPE": 0, "CLASSIFICATION_TYPE": "U", "NORAD_CAT_ID": 59600, "ELEMENT_SET_NO": 999, "REV_AT_EPOCH": 1030, "BSTAR": 0, "MEAN_MOTION_DOT": -6e-08, "MEAN_MOTION_DDOT": 0}, "tle": {"line1": "1 59600U 24079C   25353.50893098 -.00000006  00000+0  00000+0 0  9997", "line2": "2 59600  55.0006 106.1050 0002924 116.8359 243.1562  1.70474897 10305"}}, "geometry": {"type": "Point", "coordinates": [56.558034816713224, -47.38197201265652]}}]}